#dP2020  4  3  0  0  0.00000000      96 __u+U ITR00 FIT  IAC
## 2099 432000.00000000   900.00000000 58942 0.0000000000000
+  114   C01C02C03C04C06C07C08C09C10C11C12C13C14C16C19C20C21
+        C22C23C24C25C26C27C28C29C30C32C33C34C35C36C37E01E02
+        E03E04E05E07E08E09E11E12E13E14E15E18E21E24E25E26E27
+        E30E31E33E36G01G02G03G04G05G06G07G08G09G10G11G12G13
+        G14G15G16G17G18G19G20G21G22G23G24G25G26G27G28G29G30
+        G31G32J01J02J03J07R01R02R03R04R05R07R08R09R11R12R13
+        R14R15R16R17R18R19R20R21R22R23R24R26  0  0  0  0  0
++        13 12 12 12  8  8  8  8  8  8  8  8  8  8  7  7  8
++         8  8  8  8  8  7  7  8  7  8  8  8  8  8  8  4  4
++         4  5  4  5  5  4  4  5  4  4  4  4  5  5  4  4  5
++         5  5  5  4  3  3  3  3  4  3  4  3  3  3  4  3  3
++         3  4  4  4  3  3  3  3  3  4  4  3  3  4  4  4  3
++         3  3  8  8  8 13  6  5  5  6  6  6  5  5  6  6  6
++         5  6  6  5  5  6  6  6  5  6  6  8  0  0  0  0  0
%c M  cc GPS ccc cccc cccc cccc cccc ccccc ccccc ccccc ccccc
%c cc cc ccc ccc cccc cccc cccc cccc ccccc ccccc ccccc ccccc
%f  0.0000000  0.000000000  0.00000000000  0.000000000000000
%f  0.0000000  0.000000000  0.00000000000  0.000000000000000
%i    0    0    0    0      0      0      0      0         0
%i    0    0    0    0      0      0      0      0         0
/* INFORMATION & ANALYSIS CENTER (IAC)            RAPID DATA
/* S/V CLOCKS ARE ALIGNED TO GNSS TIME                      
/* G:C1WC2W R:C1PC2P E:C1XC5X C:C2IC6I J:C1CC2S             
/* PCV:IGS14_2097 OL/AL:FES2004  NONE     YN ORB:CoN CLK:CoN
*  2020 04 03  0 45  0.00000000
PC01 -34385.179101  24417.009315    675.334072   -641.269134
PC02   4419.439226  41914.382355   -490.756868    441.581393
PC03 -14737.640806  39508.329475   -933.806706    259.764747
PC04 -39640.808485  14387.416409   -611.013765   -167.320720
PC06 -23594.596404  26079.673593  23322.501457    242.204318
PC07 -14645.748274  37616.594200  13185.323327    893.157468
PC08  -8578.367927  20528.522627 -35684.488912   -183.390163
PC09  -8297.278015  26381.333667  31982.509553    445.687531
PC10  -4496.311323  42153.231021    233.211465   -817.947559
PC11  24474.005357   6442.459116 -11650.314177   -279.209347
PC12   7539.135245  14450.077111 -22613.926402    342.754771
PC13   5167.697372  28977.753912 -29993.488129    359.583927
PC14  13991.864344   7817.606450  22878.874633    259.339652
PC16 -20012.440739  26538.077307  25889.668791   -696.737728
PC19 -17752.003401   2644.585764 -21342.387290    370.653281
PC20  -8508.882050 -16117.701311 -21101.547524   -926.950591
PC21  -6180.635221  25940.969231   8284.796823   -241.605322
PC22 -16915.224035  20230.978436  -9166.103437   -848.754256
PC23  11833.579732 -11273.286324 -22620.683997   -929.018533
PC24  16470.156655  22418.003999  -2062.533659   -873.929195
PC25  20273.828654   7022.681059 -17840.121812   -569.816496
PC26   4392.609992  23728.827677  13979.669762    629.810619
PC27   3517.566577 -15861.512228  22677.167180    306.172992
PC28  22060.921546 -10450.189623  13524.514009    297.156557
PC29 -27682.635016      1.559191   3491.431364    209.594936
PC30 -17211.330447 -11498.097796  18704.351565    296.246250
PC32   5994.949391 -25963.398708  -8253.358730   -919.546539
PC33  17751.630562  -2597.873142  21381.448215   -884.566323
PC34  17626.607191  11375.908745 -18420.158530   -600.161075
PC35 -21778.223481  11154.908445 -13381.136385   -909.845646
PC36 -20146.677012  -7720.790326  17715.672737   -821.267368
PC37  -3345.332287 -23637.115548 -14448.881001   -848.894387
PE01  15542.206174  16260.671178 -19243.443361   -827.880247
PE02 -15556.566502 -16204.443354  19277.465676    123.758655
PE03 -18473.271684  -5525.129468 -22459.302170   -283.695099
PE04  25390.306530 -11644.900127   9800.159491   -497.735083
PE05   -627.027790 -19674.196423 -22101.214719   -391.911236
PE07 -17443.183919  22228.348148   8848.015920   -362.876945
PE08 -25270.644923  12034.526346  -9645.421304   6197.845123
PE09  17263.647054 -22305.091737  -8946.063482   6105.421871
PE11  10086.757234 -13417.564787  24382.156989   2062.411392
PE12  26064.078256   -228.116497  14059.446904   5873.248378
PE13 -10238.270494  13268.303745 -24387.241013    399.753859
PE14   8258.218052  18938.128689 -25115.810686   -963.482083
PE15 -25938.337017    439.317838 -14232.660993    871.811349
PE18 -11061.808404 -11412.977807  17457.819797  -1061.851884
PE21   6580.893899  28710.672906  -2920.183046   -591.385519
PE24   6669.468125 -24393.075186 -15419.640420   5527.524629
PE25  -6500.224173 -28744.402021   2792.457252   -508.447812
PE26  11676.040752  18508.899379 -19924.877144   3346.773033
PE27  -6409.114743  24501.355611  15313.525776    249.029914
PE30 -15710.369979   5549.185238  24450.334181   4016.990225
PE31  15570.815508  -5928.161151 -24465.093169   -472.170149
PE33  26428.565713  12645.388108  -4263.595084   -468.840945
PE36 -11449.940289 -18314.212189  20243.866236    577.939255
PG01  22101.514195  14845.666191   2314.252292   -346.353680
PG02  -7527.686898 -19327.240073  17268.785295   -432.853765
PG03  13219.309571  10059.169306  20689.672945   -134.843667
PG04  21585.638839   3002.447488  15211.637954    -70.918415
PG05  -2711.151959 -25414.535590  -6968.205481    -10.184764
PG06   3660.904963 -15276.271741  21465.004523   -244.665793
PG07  20714.797938   1081.378460 -16561.728011   -249.932854
PG08  12467.138823  10277.245824 -21106.457968    -29.318732
PG09  25042.337517  -6475.241305   6027.855527   -189.828456
PG10 -11555.349522  19724.774737 -13236.348519   -297.881834
PG11  19527.863898  13257.144527 -12373.182095   -316.142113
PG12 -11287.295876 -12901.918283  20100.544016    133.630415
PG13  -3641.788856 -14667.936454 -21959.597212     -0.924259
PG14 -11276.133655  16712.184952  17534.620808    -22.150028
PG15 -14439.906116  -9547.158902 -20535.306537   -240.639330
PG16    446.326263  25032.858320  -8362.131857   -142.167422
PG17  19755.903636 -14569.217427  10503.029298    242.541168
PG18 -22179.334170  -5449.598523 -13595.135389    142.260810
PG19  14001.830891 -15563.518935  16045.695533   -177.279335
PG20 -14743.637353   9334.890184 -20049.313541    527.843775
PG21 -19961.420531   1066.549841 -16564.960018    -19.315054
PG22  11238.339944  18295.070880  15935.104049   -785.197330
PG23  23063.353543    565.580785  13908.630853   -125.086169
PG24 -22339.828426 -14730.996843     18.639287    -11.172995
PG25 -15019.014411   -458.516473  21652.442197     -5.559397
PG26  -4480.776002  25869.901108   3075.133101    179.984172
PG27    818.878340  15492.829723 -21641.244600   -256.175014
PG28  12179.178839 -20499.903792 -11260.626737    728.302247
PG29 -25099.025546   3055.659876   8124.126764    -71.768029
PG30  13097.784082  -9317.569663 -21133.863082   -189.716011
PG31  -2306.288575  16557.884146  20492.480132    -33.519223
PG32 -18420.961410  16007.996569  10379.357705    250.941963
PJ01 -24570.351921  33422.703830  -2958.261410   -331.595859
PJ02 -24993.803645  23819.528172  29004.798591     -2.182920
PJ03 -34977.995883  18334.051112 -10115.950528     -1.642713
PJ07 -25381.212994  33659.661768     19.438515      0.032317
PR01 -15948.985529  19682.914265  -3047.585159     59.454737
PR02  -4202.139234  18764.721778  16772.211355    419.886969
PR03   9107.995853   6164.705348  23060.056404     12.637601
PR04  16944.816153  -9926.175087  16309.572507     44.202223
PR05  15397.702002 -20348.583000    288.574970     47.921879
PR07  -9402.166675  -5699.094069 -22976.805847    -35.035204
PR08 -17007.476060   9890.682868 -16171.278915    -51.397474
PR09  -9231.505106 -23656.206015  -2003.721349    125.220805
PR11 -12151.346867   -678.493529  22420.203832    -18.864265
PR12  -3575.162532  15521.590703  19936.405762    119.329604
PR13   7588.351595  23679.917300   5665.190124    -36.861518
PR14  13874.550117  17849.971019 -11817.942458     49.763625
PR15  12278.380092   1757.322755 -22274.129051    106.266814
PR16   3045.404033 -16153.277385 -19579.117157     -2.526401
PR17  20842.725706   8146.523790 -12204.125226    314.232498
PR18  25110.990501   1074.903001   4557.266317     30.690330
PR19  16348.921858  -5982.161951  18647.866602    -86.814692
PR20  -4037.384104 -10848.468783  22732.817842   -408.176501
PR21 -21416.620629  -7857.720624  11434.618307   -115.480325
PR22 -24398.357557     80.845722  -7207.538492    -20.378427
PR23  -9980.217069   8589.427813 -21850.018654    296.668226
PR24   7015.052793  10856.791974 -22017.570168    -50.082685
PR26    597.562621 -10444.202440  23276.758529   -400.282789
EOF
